{"type": "FeatureCollection", "features": [ {"type": "Feature", "properties": {"norad_id": 66052, "name": "HRC MONOBLOCK CAMERA", "group": "stations", "lat": -50.629778512190356, "lon": -8.602261096518953, "alt_km": 404.9943760319684, "timestamp": "2025-12-27T19:21:57.578363+00:00", "meta": {"OBJECT_NAME": "HRC MONOBLOCK CAMERA", "OBJECT_ID": "1998-067XR", "EPOCH": "2025-12-27T07:22:24.496608", "MEAN_MOTION": 15.55156889, "ECCENTRICITY": 0.0001856, "INCLINATION": 51.6304, "RA_OF_ASC_NODE": 68.8177, "ARG_OF_PERICENTER": 258.0003, "MEAN_ANOMALY": 102.078, "EPHEMERIS_TYPE": 0, "CLASSIFICATION_TYPE": "U", "NORAD_CAT_ID": 66052, "ELEMENT_SET_NO": 999, "REV_AT_EPOCH": 1110, "BSTAR": 0.00051894, "MEAN_MOTION_DOT": 0.00035345, "MEAN_MOTION_DDOT": 0}, "tle": {"line1": "1 66052U 98067XR  25361.30722797  .00035345  00000+0  51894-3 0  9992", "line2": "2 66052  51.6304  68.8177 0001856 258.0003 102.0780 15.55156889 11109"}}, "geometry": {"type": "Point", "coordinates": [-8.602261096518953, -50.629778512190356]}}, {"type": "Feature", "properties": {"norad_id": 66174, "name": "HTV-X1", "group": "stations", "lat": -51.05975815960379, "lon": -33.497508770258996, "alt_km": 420.2129890483693, "timestamp": "2025-12-27T19:21:57.578372+00:00", "meta": {"OBJECT_NAME": "HTV-X1", "OBJECT_ID": "2025-241A", "EPOCH": "2025-12-27T04:18:31.505184", "MEAN_MOTION": 15.49864323, "ECCENTRICITY": 0.00032283, "INCLINATION": 51.6319, "RA_OF_ASC_NODE": 70.9638, "ARG_OF_PERICENTER": 308.9173, "MEAN_ANOMALY": 51.1527, "EPHEMERIS_TYPE": 0, "CLASSIFICATION_TYPE": "U", "NORAD_CAT_ID": 66174, "ELEMENT_SET_NO": 999, "REV_AT_EPOCH": 51, "BSTAR": 0.0002516974, "MEAN_MOTION_DOT": 0.00013867, "MEAN_MOTION_DDOT": 0}, "tle": {"line1": "1 66174U 25241A   25361.17953131  .00013867  00000+0  25170-3 0  9997", "line2": "2 66174  51.6319  70.9638 0003228 308.9173  51.1527 15.49864323   512"}}, "geometry": {"type": "Point", "coordinates": [-33.497508770258996, -51.05975815960379]}}, {"type": "Feature", "properties": {"norad_id": 66515, "name": "SZ-21 MODULE", "group": "stations", "lat": -17.31596078536776, "lon": -96.58753752773232, "alt_km": 376.95161005290356, "timestamp": "2025-12-27T19:21:57.578381+00:00", "meta": {"OBJECT_NAME": "SZ-21 MODULE", "OBJECT_ID": "2025-246C", "EPOCH": "2025-12-27T11:48:49.053024", "MEAN_MOTION": 15.63283022, "ECCENTRICITY": 0.0004075, "INCLINATION": 41.4763, "RA_OF_ASC_NODE": 286.0025, "ARG_OF_PERICENTER": 340.5581, "MEAN_ANOMALY": 19.5103, "EPHEMERIS_TYPE": 0, "CLASSIFICATION_TYPE": "U", "NORAD_CAT_ID": 66515, "ELEMENT_SET_NO": 999, "REV_AT_EPOCH": 675, "BSTAR": 0.00031547, "MEAN_MOTION_DOT": 0.00029574, "MEAN_MOTION_DDOT": 0}, "tle": {"line1": "1 66515U 25246C   25361.49223441  .00029574  00000+0  31547-3 0  9997", "line2": "2 66515  41.4763 286.0025 0004075 340.5581  19.5103 15.63283022  6754"}}, "geometry": {"type": "Point", "coordinates": [-96.58753752773232, -17.31596078536776]}}, {"type": "Feature", "properties": {"norad_id": 66645, "name": "SHENZHOU-22", "group": "stations", "lat": -35.263510270184845, "lon": 158.39000607854416, "alt_km": 389.9964086651289, "timestamp": "2025-12-27T19:21:57.578392+00:00", "meta": {"OBJECT_NAME": "SHENZHOU-22", "OBJECT_ID": "2025-272A", "EPOCH": "2025-12-27T06:02:45.823200", "MEAN_MOTION": 15.59750285, "ECCENTRICITY": 0.0008745, "INCLINATION": 41.4675, "RA_OF_ASC_NODE": 288.5662, "ARG_OF_PERICENTER": 157.7703, "MEAN_ANOMALY": 202.3516, "EPHEMERIS_TYPE": 0, "CLASSIFICATION_TYPE": "U", "NORAD_CAT_ID": 66645, "ELEMENT_SET_NO": 999, "REV_AT_EPOCH": 26598, "BSTAR": 0.00024488937, "MEAN_MOTION_DOT": 0.0001992, "MEAN_MOTION_DDOT": 0}, "tle": {"line1": "1 66645U 25272A   25361.25191925  .00019920  00000+0  24489-3 0  9996", "line2": "2 66645  41.4675 288.5662 0008745 157.7703 202.3516 15.59750285265983"}}, "geometry": {"type": "Point", "coordinates": [158.39000607854416, -35.263510270184845]}}, {"type": "Feature", "properties": {"norad_id": 66664, "name": "SOYUZ-MS 28", "group": "stations", "lat": -51.05995090645042, "lon": -33.49598082517168, "alt_km": 420.218385614623, "timestamp": "2025-12-27T19:21:57.578402+00:00", "meta": {"OBJECT_NAME": "SOYUZ-MS 28", "OBJECT_ID": "2025-275A", "EPOCH": "2025-12-27T10:29:55.432032", "MEAN_MOTION": 15.49871717, "ECCENTRICITY": 0.0003234, "INCLINATION": 51.632, "RA_OF_ASC_NODE": 69.6861, "ARG_OF_PERICENTER": 310.1185, "MEAN_ANOMALY": 49.952, "EPHEMERIS_TYPE": 0, "CLASSIFICATION_TYPE": "U", "NORAD_CAT_ID": 66664, "ELEMENT_SET_NO": 999, "REV_AT_EPOCH": 54513, "BSTAR": 0.00024415, "MEAN_MOTION_DOT": 0.0001344, "MEAN_MOTION_DDOT": 0}, "tle": {"line1": "1 66664U 25275A   25361.43744713  .00013440  00000+0  24415-3 0  9999", "line2": "2 66664  51.6320  69.6861 0003234 310.1185  49.9520 15.49871717545131"}}, "geometry": {"type": "Point", "coordinates": [-33.49598082517168, -51.05995090645042]}}, {"type": "Feature", "properties": {"norad_id": 66906, "name": "1998-067XS", "group": "stations", "lat": 1.2294896127810568, "lon": 68.62523214030922, "alt_km": 412.97844958147834, "timestamp": "2025-12-27T19:21:57.578412+00:00", "meta": {"OBJECT_NAME": "1998-067XS", "OBJECT_ID": "1998-067XS", "EPOCH": "2025-12-27T11:37:45.622848", "MEAN_MOTION": 15.51372826, "ECCENTRICITY": 0.0002659, "INCLINATION": 51.6319, "RA_OF_ASC_NODE": 69.2523, "ARG_OF_PERICENTER": 278.8538, "MEAN_ANOMALY": 81.215, "EPHEMERIS_TYPE": 0, "CLASSIFICATION_TYPE": "U", "NORAD_CAT_ID": 66906, "ELEMENT_SET_NO": 999, "REV_AT_EPOCH": 390, "BSTAR": 0.00048079, "MEAN_MOTION_DOT": 0.00028453, "MEAN_MOTION_DDOT": 0}, "tle": {"line1": "1 66906U 98067XS  25361.48455582  .00028453  00000+0  48079-3 0  9997", "line2": "2 66906  51.6319  69.2523 0002659 278.8538  81.2150 15.51372826  3903"}}, "geometry": {"type": "Point", "coordinates": [68.62523214030922, 1.2294896127810568]}}, {"type": "Feature", "properties": {"norad_id": 66907, "name": "1998-067XT", "group": "stations", "lat": 51.50086013015556, "lon": 162.57095660138202, "alt_km": 401.6644168719595, "timestamp": "2025-12-27T19:21:57.578422+00:00", "meta": {"OBJECT_NAME": "1998-067XT", "OBJECT_ID": "1998-067XT", "EPOCH": "2025-12-27T09:42:09.227808", "MEAN_MOTION": 15.53307188, "ECCENTRICITY": 0.0003783, "INCLINATION": 51.632, "RA_OF_ASC_NODE": 69.4664, "ARG_OF_PERICENTER": 315.9002, "MEAN_ANOMALY": 44.1686, "EPHEMERIS_TYPE": 0, "CLASSIFICATION_TYPE": "U", "NORAD_CAT_ID": 66907, "ELEMENT_SET_NO": 999, "REV_AT_EPOCH": 389, "BSTAR": 0.0010591, "MEAN_MOTION_DOT": 0.0006817, "MEAN_MOTION_DDOT": 0}, "tle": {"line1": "1 66907U 98067XT  25361.40427347  .00068170  00000+0  10591-2 0  9995", "line2": "2 66907  51.6320  69.4664 0003783 315.9002  44.1686 15.53307188  3893"}}, "geometry": {"type": "Point", "coordinates": [162.57095660138202, 51.50086013015556]}}, {"type": "Feature", "properties": {"norad_id": 66908, "name": "1998-067XU", "group": "stations", "lat": 50.576474236095635, "lon": 172.93553796302814, "alt_km": 402.1339162260265, "timestamp": "2025-12-27T19:21:57.578431+00:00", "meta": {"OBJECT_NAME": "1998-067XU", "OBJECT_ID": "1998-067XU", "EPOCH": "2025-12-27T11:13:06.748608", "MEAN_MOTION": 15.53347401, "ECCENTRICITY": 0.0004039, "INCLINATION": 51.6324, "RA_OF_ASC_NODE": 69.1374, "ARG_OF_PERICENTER": 312.9995, "MEAN_ANOMALY": 47.0657, "EPHEMERIS_TYPE": 0, "CLASSIFICATION_TYPE": "U", "NORAD_CAT_ID": 66908, "ELEMENT_SET_NO": 999, "REV_AT_EPOCH": 390, "BSTAR": 0.00092502, "MEAN_MOTION_DOT": 0.00059503, "MEAN_MOTION_DDOT": 0}, "tle": {"line1": "1 66908U 98067XU  25361.46743922  .00059503  00000+0  92502-3 0  9995", "line2": "2 66908  51.6324  69.1374 0004039 312.9995  47.0657 15.53347401  3900"}}, "geometry": {"type": "Point", "coordinates": [172.93553796302814, 50.576474236095635]}}, {"type": "Feature", "properties": {"norad_id": 66909, "name": "SILVERSAT", "group": "stations", "lat": 46.795365728208374, "lon": -170.0952282110987, "alt_km": 401.76507994522217, "timestamp": "2025-12-27T19:21:57.578440+00:00", "meta": {"OBJECT_NAME": "SILVERSAT", "OBJECT_ID": "1998-067XV", "EPOCH": "2025-12-27T11:10:11.042112", "MEAN_MOTION": 15.53674289, "ECCENTRICITY": 0.0003945, "INCLINATION": 51.6313, "RA_OF_ASC_NODE": 69.1235, "ARG_OF_PERICENTER": 319.4612, "MEAN_ANOMALY": 40.6084, "EPHEMERIS_TYPE": 0, "CLASSIFICATION_TYPE": "U", "NORAD_CAT_ID": 66909, "ELEMENT_SET_NO": 999, "REV_AT_EPOCH": 390, "BSTAR": 0.0011635, "MEAN_MOTION_DOT": 0.00076025, "MEAN_MOTION_DDOT": 0}, "tle": {"line1": "1 66909U 98067XV  25361.46540558  .00076025  00000+0  11635-2 0  9991", "line2": "2 66909  51.6313  69.1235 0003945 319.4612  40.6084 15.53674289  3908"}}, "geometry": {"type": "Point", "coordinates": [-170.0952282110987, 46.795365728208374]}}, {"type": "Feature", "properties": {"norad_id": 66910, "name": "1998-067XW", "group": "stations", "lat": 42.83081591131272, "lon": -159.85878915859692, "alt_km": 402.85943325013886, "timestamp": "2025-12-27T19:21:57.578449+00:00", "meta": {"OBJECT_NAME": "1998-067XW", "OBJECT_ID": "1998-067XW", "EPOCH": "2025-12-27T11:08:00.617856", "MEAN_MOTION": 15.53557016, "ECCENTRICITY": 0.0003698, "INCLINATION": 51.6304, "RA_OF_ASC_NODE": 69.1129, "ARG_OF_PERICENTER": 290.9058, "MEAN_ANOMALY": 69.1536, "EPHEMERIS_TYPE": 0, "CLASSIFICATION_TYPE": "U", "NORAD_CAT_ID": 66910, "ELEMENT_SET_NO": 999, "REV_AT_EPOCH": 390, "BSTAR": 0.0010574, "MEAN_MOTION_DOT": 0.00068686, "MEAN_MOTION_DDOT": 0}, "tle": {"line1": "1 66910U 98067XW  25361.46389604  .00068686  00000+0  10574-2 0  9991", "line2": "2 66910  51.6304  69.1129 0003698 290.9058  69.1536 15.53557016  3900"}}, "geometry": {"type": "Point", "coordinates": [-159.85878915859692, 42.83081591131272]}}]}